{"type": "FeatureCollection", "features": [ {"type": "Feature", "properties": {"norad_id": 40118, "name": "GAOFEN-2", "group": "resource", "lat": -28.295965263636035, "lon": 57.782411978142875, "alt_km": 636.3317799277584, "timestamp": "2025-12-20T05:41:49.675373+00:00", "meta": {"OBJECT_NAME": "GAOFEN-2", "OBJECT_ID": "2014-049A", "EPOCH": "2025-12-19T23:20:18.200832", "MEAN_MOTION": 14.80618938, "ECCENTRICITY": 0.00087309, "INCLINATION": 98.0383, "RA_OF_ASC_NODE": 53.1538, "ARG_OF_PERICENTER": 92.8628, "MEAN_ANOMALY": 267.3583, "EPHEMERIS_TYPE": 0, "CLASSIFICATION_TYPE": "U", "NORAD_CAT_ID": 40118, "ELEMENT_SET_NO": 999, "REV_AT_EPOCH": 61271, "BSTAR": 7.319115e-06, "MEAN_MOTION_DOT": 3e-08, "MEAN_MOTION_DDOT": 0}, "tle": {"line1": "1 40118U 14049A   25353.97243288  .00000003  00000+0  73191-5 0  9991", "line2": "2 40118  98.0383  53.1538 0008730  92.8628 267.3583 14.80618938612714"}}, "geometry": {"type": "Point", "coordinates": [57.782411978142875, -28.295965263636035]}}, {"type": "Feature", "properties": {"norad_id": 40143, "name": "YAOGAN-21", "group": "resource", "lat": 15.939005670335632, "lon": 35.162482007490176, "alt_km": 489.1141490862201, "timestamp": "2025-12-20T05:41:49.675383+00:00", "meta": {"OBJECT_NAME": "YAOGAN-21", "OBJECT_ID": "2014-053A", "EPOCH": "2025-12-19T23:19:21.460224", "MEAN_MOTION": 15.23745147, "ECCENTRICITY": 0.00090876, "INCLINATION": 97.1754, "RA_OF_ASC_NODE": 36.9703, "ARG_OF_PERICENTER": 19.0146, "MEAN_ANOMALY": 341.143, "EPHEMERIS_TYPE": 0, "CLASSIFICATION_TYPE": "U", "NORAD_CAT_ID": 40143, "ELEMENT_SET_NO": 999, "REV_AT_EPOCH": 62764, "BSTAR": 0.00012891696, "MEAN_MOTION_DOT": 3.034e-05, "MEAN_MOTION_DDOT": 0}, "tle": {"line1": "1 40143U 14053A   25353.97177616  .00003034  00000+0  12892-3 0  9991", "line2": "2 40143  97.1754  36.9703 0009087  19.0146 341.1430 15.23745147627640"}}, "geometry": {"type": "Point", "coordinates": [35.162482007490176, 15.939005670335632]}}, {"type": "Feature", "properties": {"norad_id": 40275, "name": "YAOGAN-22", "group": "resource", "lat": 1.2403381289365418, "lon": 137.5271356037003, "alt_km": 1207.4123856937422, "timestamp": "2025-12-20T05:41:49.675394+00:00", "meta": {"OBJECT_NAME": "YAOGAN-22", "OBJECT_ID": "2014-063A", "EPOCH": "2025-12-19T22:23:23.202816", "MEAN_MOTION": 13.15522939, "ECCENTRICITY": 0.00060143, "INCLINATION": 100.7427, "RA_OF_ASC_NODE": 137.454, "ARG_OF_PERICENTER": 230.7915, "MEAN_ANOMALY": 129.2663, "EPHEMERIS_TYPE": 0, "CLASSIFICATION_TYPE": "U", "NORAD_CAT_ID": 40275, "ELEMENT_SET_NO": 999, "REV_AT_EPOCH": 53624, "BSTAR": -1.4580584e-05, "MEAN_MOTION_DOT": -5.2e-07, "MEAN_MOTION_DDOT": 0}, "tle": {"line1": "1 40275U 14063A   25353.93290744 -.00000052  00000+0 -14581-4 0  9999", "line2": "2 40275 100.7427 137.4540 0006014 230.7915 129.2663 13.15522939536242"}}, "geometry": {"type": "Point", "coordinates": [137.5271356037003, 1.2403381289365418]}}, {"type": "Feature", "properties": {"norad_id": 40298, "name": "ASNARO", "group": "resource", "lat": -47.08984741738298, "lon": 77.99986319602446, "alt_km": 517.1992195703633, "timestamp": "2025-12-20T05:41:49.675404+00:00", "meta": {"OBJECT_NAME": "ASNARO", "OBJECT_ID": "2014-070A", "EPOCH": "2025-12-19T22:00:16.921728", "MEAN_MOTION": 15.19631441, "ECCENTRICITY": 0.00057905, "INCLINATION": 97.3653, "RA_OF_ASC_NODE": 69.6885, "ARG_OF_PERICENTER": 102.0409, "MEAN_ANOMALY": 258.1476, "EPHEMERIS_TYPE": 0, "CLASSIFICATION_TYPE": "U", "NORAD_CAT_ID": 40298, "ELEMENT_SET_NO": 999, "REV_AT_EPOCH": 61678, "BSTAR": 0.00026857844, "MEAN_MOTION_DOT": 5.659e-05, "MEAN_MOTION_DDOT": 0}, "tle": {"line1": "1 40298U 14070A   25353.91686252  .00005659  00000+0  26858-3 0  9998", "line2": "2 40298  97.3653  69.6885 0005790 102.0409 258.1476 15.19631441616783"}}, "geometry": {"type": "Point", "coordinates": [77.99986319602446, -47.08984741738298]}}, {"type": "Feature", "properties": {"norad_id": 40310, "name": "YAOGAN-24", "group": "resource", "lat": -16.063405527634096, "lon": -56.98621908421188, "alt_km": 644.5013449383196, "timestamp": "2025-12-20T05:41:49.675414+00:00", "meta": {"OBJECT_NAME": "YAOGAN-24", "OBJECT_ID": "2014-072A", "EPOCH": "2025-12-19T22:18:20.877984", "MEAN_MOTION": 14.76190914, "ECCENTRICITY": 0.00150489, "INCLINATION": 98.1221, "RA_OF_ASC_NODE": 125.061, "ARG_OF_PERICENTER": 116.3314, "MEAN_ANOMALY": 243.9442, "EPHEMERIS_TYPE": 0, "CLASSIFICATION_TYPE": "U", "NORAD_CAT_ID": 40310, "ELEMENT_SET_NO": 999, "REV_AT_EPOCH": 59727, "BSTAR": 0.00011715037, "MEAN_MOTION_DOT": 7.59e-06, "MEAN_MOTION_DDOT": 0}, "tle": {"line1": "1 40310U 14072A   25353.92940831  .00000759  00000+0  11715-3 0  9994", "line2": "2 40310  98.1221 125.0610 0015048 116.3314 243.9442 14.76190914597275"}}, "geometry": {"type": "Point", "coordinates": [-56.98621908421188, -16.063405527634096]}}, {"type": "Feature", "properties": {"norad_id": 40336, "name": "CBERS 4", "group": "resource", "lat": -76.67657257127175, "lon": 90.21938615152958, "alt_km": 781.9444295014637, "timestamp": "2025-12-20T05:41:49.675424+00:00", "meta": {"OBJECT_NAME": "CBERS 4", "OBJECT_ID": "2014-079A", "EPOCH": "2025-12-19T23:22:33.855744", "MEAN_MOTION": 14.35519773, "ECCENTRICITY": 0.00017992, "INCLINATION": 98.3305, "RA_OF_ASC_NODE": 51.7435, "ARG_OF_PERICENTER": 104.2918, "MEAN_ANOMALY": 255.8468, "EPHEMERIS_TYPE": 0, "CLASSIFICATION_TYPE": "U", "NORAD_CAT_ID": 40336, "ELEMENT_SET_NO": 999, "REV_AT_EPOCH": 57824, "BSTAR": 1.4222999e-05, "MEAN_MOTION_DOT": -1e-08, "MEAN_MOTION_DDOT": 0}, "tle": {"line1": "1 40336U 14079A   25353.97400296 -.00000001  00000+0  14223-4 0  9999", "line2": "2 40336  98.3305  51.7435 0001799 104.2918 255.8468 14.35519773578241"}}, "geometry": {"type": "Point", "coordinates": [90.21938615152958, -76.67657257127175]}}, {"type": "Feature", "properties": {"norad_id": 40362, "name": "YAOGAN-26", "group": "resource", "lat": 25.183354610624626, "lon": 177.9877763098053, "alt_km": 449.7338322607584, "timestamp": "2025-12-20T05:41:49.675435+00:00", "meta": {"OBJECT_NAME": "YAOGAN-26", "OBJECT_ID": "2014-088A", "EPOCH": "2025-12-19T22:47:19.271904", "MEAN_MOTION": 15.39543084, "ECCENTRICITY": 0.00051467, "INCLINATION": 97.0636, "RA_OF_ASC_NODE": 354.3675, "ARG_OF_PERICENTER": 8.7164, "MEAN_ANOMALY": 351.4171, "EPHEMERIS_TYPE": 0, "CLASSIFICATION_TYPE": "U", "NORAD_CAT_ID": 40362, "ELEMENT_SET_NO": 999, "REV_AT_EPOCH": 61005, "BSTAR": 0.00041237893, "MEAN_MOTION_DOT": 0.0001615, "MEAN_MOTION_DDOT": 0}, "tle": {"line1": "1 40362U 14088A   25353.94952861  .00016150  00000+0  41238-3 0  9991", "line2": "2 40362  97.0636 354.3675 0005146   8.7164 351.4171 15.39543084610059"}}, "geometry": {"type": "Point", "coordinates": [177.9877763098053, 25.183354610624626]}}, {"type": "Feature", "properties": {"norad_id": 40376, "name": "SMAP", "group": "resource", "lat": 26.29098461216618, "lon": -177.0977384733593, "alt_km": 681.0360675198626, "timestamp": "2025-12-20T05:41:49.675446+00:00", "meta": {"OBJECT_NAME": "SMAP", "OBJECT_ID": "2015-003A", "EPOCH": "2025-12-19T22:26:04.978176", "MEAN_MOTION": 14.63353412, "ECCENTRICITY": 0.00012217, "INCLINATION": 98.1288, "RA_OF_ASC_NODE": 358.5549, "ARG_OF_PERICENTER": 91.7059, "MEAN_ANOMALY": 268.4283, "EPHEMERIS_TYPE": 0, "CLASSIFICATION_TYPE": "U", "NORAD_CAT_ID": 40376, "ELEMENT_SET_NO": 999, "REV_AT_EPOCH": 58140, "BSTAR": 8.0878384e-05, "MEAN_MOTION_DOT": 3.71e-06, "MEAN_MOTION_DDOT": 0}, "tle": {"line1": "1 40376U 15003A   25353.93477984  .00000371  00000+0  80878-4 0  9993", "line2": "2 40376  98.1288 358.5549 0001221  91.7059 268.4283 14.63353412581407"}}, "geometry": {"type": "Point", "coordinates": [-177.0977384733593, 26.29098461216618]}}, {"type": "Feature", "properties": {"norad_id": 40536, "name": "KOMPSAT-3A", "group": "resource", "lat": -40.37919008080439, "lon": 142.4099406346985, "alt_km": 441.63626385219686, "timestamp": "2025-12-20T05:41:49.675457+00:00", "meta": {"OBJECT_NAME": "KOMPSAT-3A", "OBJECT_ID": "2015-014A", "EPOCH": "2025-12-19T22:31:25.683744", "MEAN_MOTION": 15.44194647, "ECCENTRICITY": 0.0005419, "INCLINATION": 97.679, "RA_OF_ASC_NODE": 328.6835, "ARG_OF_PERICENTER": 111.0547, "MEAN_ANOMALY": 249.128, "EPHEMERIS_TYPE": 0, "CLASSIFICATION_TYPE": "U", "NORAD_CAT_ID": 40536, "ELEMENT_SET_NO": 999, "REV_AT_EPOCH": 59406, "BSTAR": 0.00029302318, "MEAN_MOTION_DOT": 0.00013362, "MEAN_MOTION_DDOT": 0}, "tle": {"line1": "1 40536U 15014A   25353.93849171  .00013362  00000+0  29302-3 0  9992", "line2": "2 40536  97.6790 328.6835 0005419 111.0547 249.1280 15.44194647594066"}}, "geometry": {"type": "Point", "coordinates": [142.4099406346985, -40.37919008080439]}}, {"type": "Feature", "properties": {"norad_id": 40697, "name": "SENTINEL-2A", "group": "resource", "lat": -44.339581567357925, "lon": -121.81403574112667, "alt_km": 796.2672839803945, "timestamp": "2025-12-20T05:41:49.675468+00:00", "meta": {"OBJECT_NAME": "SENTINEL-2A", "OBJECT_ID": "2015-028A", "EPOCH": "2025-12-19T21:56:09.640608", "MEAN_MOTION": 14.30807056, "ECCENTRICITY": 0.0001074, "INCLINATION": 98.5745, "RA_OF_ASC_NODE": 66.3456, "ARG_OF_PERICENTER": 88.4067, "MEAN_ANOMALY": 271.7239, "EPHEMERIS_TYPE": 0, "CLASSIFICATION_TYPE": "U", "NORAD_CAT_ID": 40697, "ELEMENT_SET_NO": 999, "REV_AT_EPOCH": 54809, "BSTAR": -2.3922478e-05, "MEAN_MOTION_DOT": -1.06e-06, "MEAN_MOTION_DDOT": 0}, "tle": {"line1": "1 40697U 15028A   25353.91400047 -.00000106  00000+0 -23922-4 0  9995", "line2": "2 40697  98.5745  66.3456 0001074  88.4067 271.7239 14.30807056548092"}}, "geometry": {"type": "Point", "coordinates": [-121.81403574112667, -44.339581567357925]}}]}